STARLINK-1559           
1 46077U 20055BC  26068.23360559  .00042685  00000+0  14779-2 0  9995
2 46077  53.0254  76.0659 0004229  33.9710 326.1559 15.29461733309518
STARLINK-31453          
1 59522U 24073M   26068.00945881  .00028943  00000+0  10570-2 0  9996
2 59522  43.0033 304.0819 0001812 268.3632  91.7012 15.27584354106275
