[{"OBJECT_NAME":"STARLINK-1559","OBJECT_ID":"2020-055BC","EPOCH":"2026-03-09T05:36:23.522976","MEAN_MOTION":15.29461733,"ECCENTRICITY":0.0004229,"INCLINATION":53.0254,"RA_OF_ASC_NODE":76.0659,"ARG_OF_PERICENTER":33.971,"MEAN_ANOMALY":326.1559,"EPHEMERIS_TYPE":0,"CLASSIFICATION_TYPE":"U","NORAD_CAT_ID":46077,"ELEMENT_SET_NO":999,"REV_AT_EPOCH":30951,"BSTAR":0.0014778793,"MEAN_MOTION_DOT":0.00042685,"MEAN_MOTION_DDOT":0},{"OBJECT_NAME":"STARLINK-31453","OBJECT_ID":"2024-073M","EPOCH":"2026-03-09T00:13:37.241184","MEAN_MOTION":15.27584354,"ECCENTRICITY":0.00018128,"INCLINATION":43.0033,"RA_OF_ASC_NODE":304.0819,"ARG_OF_PERICENTER":268.3632,"MEAN_ANOMALY":91.7012,"EPHEMERIS_TYPE":0,"CLASSIFICATION_TYPE":"U","NORAD_CAT_ID":59522,"ELEMENT_SET_NO":999,"REV_AT_EPOCH":10627,"BSTAR":0.0010570329,"MEAN_MOTION_DOT":0.00028943,"MEAN_MOTION_DDOT":0}]
